H1 CPF 01  gfz 2021 05 13 00  6331 terrasarx 
H2 0702601  6201 31698    2021 05 13 00 59 42 2021 05 18 00 00 42   120 1 1  0 0 0
H9
10 0 59350  25902.000000  0   -3301855.398    216518.353  -6048666.838
10 0 59350  26022.000000  0   -4018212.942    545030.255  -5575780.213
10 0 59350  26142.000000  0   -4659049.196    875957.396  -5005412.564
10 0 59350  26262.000000  0   -5213177.695   1202119.548  -4347446.161
10 0 59350  26382.000000  0   -5671018.801   1516224.787  -3613314.016
10 0 59350  26502.000000  0   -6024775.305   1811027.192  -2815809.455
10 0 59350  26622.000000  0   -6268577.029   2079487.580  -1968868.819
10 0 59350  26742.000000  0   -6398590.462   2314934.665  -1087330.039
10 0 59350  26862.000000  0   -6413089.754   2511222.302   -186670.267
10 0 59350  26982.000000  0   -6312485.737   2662878.038    717272.181
10 0 59350  27102.000000  0   -6099311.142   2765239.757   1608584.393
10 0 59350  27222.000000  0   -5778162.994   2814576.992   2471568.112
10 0 59350  27342.000000  0   -5355603.018   2808192.576   3291024.644
10 0 59350  27462.000000  0   -4840019.875   2744502.564   4052530.150
10 0 59350  27582.000000  0   -4241454.894   2623091.934   4742693.952
10 0 59350  27702.000000  0   -3571398.707   2444745.995   5349394.568
10 0 59350  27822.000000  0   -2842563.452   2211457.066   5861991.366
10 0 59350  27942.000000  0   -2068633.923   1926405.958   6271508.090
10 0 59350  28062.000000  0   -1264004.401   1593918.367   6570784.432
10 0 59350  28182.000000  0    -443507.129   1219397.762   6754593.890
10 0 59350  28302.000000  0     377861.141    809236.158   6819728.615
10 0 59350  28422.000000  0    1185212.403    370704.554   6765051.814
10 0 59350  28542.000000  0    1964035.900    -88175.368   6591516.204
10 0 59350  28662.000000  0    2700457.848   -558777.152   6302149.352
10 0 59350  28782.000000  0    3381489.195  -1032030.851   5902005.117
10 0 59350  28902.000000  0    3995257.876  -1498596.518   5398080.861
10 0 59350  29022.000000  0    4531219.938  -1949048.202   4799200.435
10 0 59350  29142.000000  0    4980346.415  -2374063.855   4115865.997
10 0 59350  29262.000000  0    5335284.236  -2764618.683   3360078.834
10 0 59350  29382.000000  0    5590485.038  -3112177.167   2545129.097
10 0 59350  29502.000000  0    5742297.406  -3408878.640   1685360.339
10 0 59350  29622.000000  0    5789022.869  -3647713.297    795913.750
10 0 59350  29742.000000  0    5730932.259  -3822682.873   -107545.886
10 0 59350  29862.000000  0    5570242.670  -3928942.018  -1009113.977
10 0 59350  29982.000000  0    5311054.332  -3962916.490  -1892936.054
10 0 59350  30102.000000  0    4959249.599  -3922394.588  -2743494.434
10 0 59350  30222.000000  0    4522357.170  -3806591.333  -3545886.139
10 0 59350  30342.000000  0    4009385.447  -3616182.948  -4286086.675
10 0 59350  30462.000000  0    3430629.783  -3353311.763  -4951193.740
10 0 59350  30582.000000  0    2797459.016  -3021561.212  -5529646.933
10 0 59350  30702.000000  0    2122087.190  -2625903.557  -6011419.114
10 0 59350  30822.000000  0    1417336.339  -2172622.697  -6388179.926
10 0 59350  30942.000000  0     696392.547  -1669210.972  -6653430.663
10 0 59350  31062.000000  0     -27439.251  -1124242.751  -6802605.384
10 0 59350  31182.000000  0    -740976.430   -547229.059  -6833140.123
10 0 59350  31302.000000  0   -1431392.753     51545.277  -6744511.637
10 0 59350  31422.000000  0   -2086443.855    661200.614  -6538244.858
10 0 59350  31542.000000  0   -2694679.250   1270454.941  -6217889.123
10 0 59350  31662.000000  0   -3245638.679   1867827.407  -5788963.918
10 0 59350  31782.000000  0   -3730031.644   2441850.344  -5258874.689
10 0 59350  31902.000000  0   -4139897.835   2981287.597  -4636796.819
10 0 59350  32022.000000  0   -4468743.507   3475354.268  -3933526.757
10 0 59350  32142.000000  0   -4711650.166   3913933.623  -3161304.290
10 0 59350  32262.000000  0   -4865355.200   4287787.389  -2333607.102
10 0 59350  32382.000000  0   -4928300.874   4588753.333  -1464919.082
10 0 59350  32502.000000  0   -4900650.777   4809926.320   -570477.176
10 0 59350  32622.000000  0   -4784271.743   4945817.534    334000.322
10 0 59350  32742.000000  0   -4582680.102   4992487.077   1232597.230
10 0 59350  32862.000000  0   -4300955.479   4947645.106   2109489.200
10 0 59350  32982.000000  0   -3945620.752   4810719.302   2949232.121
10 0 59350  33102.000000  0   -3524493.557   4582887.337   3737041.500
10 0 59350  33222.000000  0   -3046514.123   4267074.050   4459057.740
10 0 59350  33342.000000  0   -2521553.538   3867913.727   5102593.079
10 0 59350  33462.000000  0   -1960206.274   3391677.607   5656354.752
10 0 59350  33582.000000  0   -1373572.731   2846169.201   6110640.105
10 0 59350  33702.000000  0    -773036.711   2240590.036   6457500.977
10 0 59350  33822.000000  0    -170044.065   1585379.706   6690875.168
10 0 59350  33942.000000  0     424114.862    892033.479   6806687.355
10 0 59350  34062.000000  0     998516.307    172899.302   6802915.155
10 0 59350  34182.000000  0    1542802.672   -559041.123   6679622.286
10 0 59350  34302.000000  0    2047368.611  -1290406.137   6438958.400
10 0 59350  34422.000000  0    2503530.546  -2007657.846   6085124.248
10 0 59350  34542.000000  0    2903677.998  -2697353.046   5624303.951
10 0 59350  34662.000000  0    3241403.269  -3346396.727   5064562.271
10 0 59350  34782.000000  0    3511606.880  -3942293.822   4415709.541
10 0 59350  34902.000000  0    3710578.179  -4473394.599   3689134.851
10 0 59350  35022.000000  0    3836047.702  -4929128.537   2897608.337
10 0 59350  35142.000000  0    3887210.319  -5300220.938   2055056.724
10 0 59350  35262.000000  0    3864718.599  -5578887.110   1176315.090
10 0 59350  35382.000000  0    3770645.783  -5758998.564    276859.588
10 0 59350  35502.000000  0    3608419.945  -5836217.029   -627471.676
10 0 59350  35622.000000  0    3382730.864  -5808094.602  -1520766.973
10 0 59350  35742.000000  0    3099409.808  -5674133.894  -2387329.709
10 0 59350  35862.000000  0    2765288.563  -5435809.744  -3211960.934
10 0 59350  35982.000000  0    2388039.282  -5096550.442  -3980231.056
10 0 59350  36102.000000  0    1975999.803  -4661679.837  -4678732.919
10 0 59350  36222.000000  0    1537990.191  -4138323.229  -5295311.534
10 0 59350  36342.000000  0    1083125.975  -3535280.491  -5819268.043
10 0 59350  36462.000000  0     620630.402  -2862869.918  -6241535.524
10 0 59350  36582.000000  0     159649.676  -2132746.205  -6554824.767
10 0 59350  36702.000000  0    -290924.414  -1357695.646  -6753739.039
10 0 59350  36822.000000  0    -722621.254   -551412.731  -6834857.615
10 0 59350  36942.000000  0   -1127545.942    271738.504  -6796787.859
10 0 59350  37062.000000  0   -1498520.249   1096974.168  -6640185.524
10 0 59350  37182.000000  0   -1829206.847   1909349.337  -6367744.559
10 0 59350  37302.000000  0   -2114215.394   2694021.801  -5984156.010
10 0 59350  37422.000000  0   -2349190.576   3436519.173  -5496036.903
10 0 59350  37542.000000  0   -2530879.170   4123004.402  -4911826.912
10 0 59350  37662.000000  0   -2657176.326   4740536.178  -4241654.100
10 0 59350  37782.000000  0   -2727148.768   5277318.209  -3497168.432
10 0 59350  37902.000000  0   -2741033.656   5722930.668  -2691346.948
10 0 59350  38022.000000  0   -2700214.099   6068542.002  -1838274.367
10 0 59350  38142.000000  0   -2607170.749   6307094.657   -952897.617
10 0 59350  38262.000000  0   -2465410.027   6433456.390    -50761.904
10 0 59350  38382.000000  0   -2279372.211   6444538.742    852266.031
10 0 59350  38502.000000  0   -2054318.500   6339374.974   1740288.143
10 0 59350  38622.000000  0   -1796199.556   6119150.912   2597665.591
10 0 59350  38742.000000  0   -1511511.261   5787192.763   3409301.814
10 0 59350  38862.000000  0   -1207141.644   5348912.990   4160913.902
10 0 59350  38982.000000  0    -890212.747   4811715.426   4839288.340
10 0 59350  39102.000000  0    -567918.720   4184860.049   5432515.034
10 0 59350  39222.000000  0    -247366.676   3479294.296   5930192.706
10 0 59350  39342.000000  0      64575.519   2707453.681   6323607.897
10 0 59350  39462.000000  0     361422.916   1883035.600   6605881.074
10 0 59350  39582.000000  0     637205.644   1020752.289   6772081.281
10 0 59350  39702.000000  0     886586.873    136065.785   6819306.338
10 0 59350  39822.000000  0    1104964.692   -755088.171   6746730.213
10 0 59350  39942.000000  0    1288556.503  -1636586.694   6555617.729
10 0 59350  40062.000000  0    1434464.760  -2492410.890   6249304.208
10 0 59350  40182.000000  0    1540722.862  -3306937.833   5833141.401
10 0 59350  40302.000000  0    1606320.055  -4065228.385   5314408.621
10 0 59350  40422.000000  0    1631205.683  -4753303.994   4702190.345
10 0 59350  40542.000000  0    1616273.356  -5358409.870   4007224.082
10 0 59350  40662.000000  0    1563324.445  -5869261.467   3241716.489
10 0 59350  40782.000000  0    1475010.697  -6276263.938   2419128.654
10 0 59350  40902.000000  0    1354757.929  -6571700.644   1553938.524
10 0 59350  41022.000000  0    1206672.564  -6749888.445    661382.707
10 0 59350  41142.000000  0    1035432.970  -6807293.652   -242818.575
10 0 59350  41262.000000  0     846166.846  -6742605.760  -1142748.479
10 0 59350  41382.000000  0     644319.252  -6556762.706  -2022584.333
10 0 59350  41502.000000  0     435515.991  -6252930.401  -2866882.719
10 0 59350  41622.000000  0     225425.166  -5836439.962  -3660855.238
10 0 59350  41742.000000  0      19619.747  -5314682.743  -4390630.056
10 0 59350  41862.000000  0    -176555.436  -4696965.538  -5043492.282
10 0 59350  41982.000000  0    -358108.637  -3994332.588  -5608099.329
10 0 59350  42102.000000  0    -520515.513  -3219357.902  -6074669.481
10 0 59350  42222.000000  0    -659820.262  -2385912.944  -6435140.622
10 0 59350  42342.000000  0    -772722.257  -1508914.666  -6683298.036
99
